NORAD_CAT_ID,OBJECT_NAME,OBJECT_TYPE,EPOCH,MEAN_MOTION,ECCENTRICITY,INCLINATION,RA_OF_ASC_NODE,ARG_OF_PERICENTER,MEAN_ANOMALY,BSTAR,MEAN_MOTION_DOT,MEAN_MOTION_DDOT,TLE_LINE0,TLE_LINE1,TLE_LINE2,SEMIMAJOR_AXIS,PERIOD,APOGEE,PERIGEE,DECAYED
54800.0,STARLINK-5428,PAYLOAD,2024-04-10 19:02:09,15.08844893,0.0001552,53.2192,286.8723,82.8,277.3168,2.5776e-05,1.22e-06,0.0,0 STARLINK-5428,1 54800U 22175AU  24101.79316328  .00000122  00000-0  25776-4 0  9997,2 54800  53.2192 286.8723 0001552  82.8000 277.3168 15.08844893 72540,6917.865,95.437,540.804,538.657,0.0
54800.0,STARLINK-5428,PAYLOAD,2024-04-10 22:12:55,15.08844879,0.0001107,53.2164,286.275,101.7032,258.4085,6.0944e-05,6.82e-06,0.0,0 STARLINK-5428,1 54800U 22175AU  24101.92563989  .00000682  00000-0  60944-4 0  9996,2 54800  53.2164 286.2750 0001107 101.7032 258.4085 15.08844879 74729,6917.865,95.437,540.496,538.965,0.0
54800.0,STARLINK-5428,PAYLOAD,2024-04-11 18:52:56,15.08840379,0.0001152,53.2166,282.4102,88.4609,271.6515,7.74e-05,9.44e-06,0.0,0 STARLINK-5428,1 54800U 22175AU  24102.78676390  .00000944  00000-0  77400-4 0  9998,2 54800  53.2166 282.4102 0001152  88.4609 271.6515 15.08840379 74851,6917.879,95.438,540.541,538.947,0.0
54800.0,STARLINK-5428,PAYLOAD,2024-04-12 12:22:11,15.08807244,0.0001288,53.2167,279.1409,108.4471,251.6661,0.00047946,7.344e-05,0.0,0 STARLINK-5428,1 54800U 22175AU  24103.51540916  .00007344  00000-0  47946-3 0  9996,2 54800  53.2167 279.1409 0001288 108.4471 251.6661 15.08807244 72802,6917.981,95.44,540.737,538.954,0.0
54800.0,STARLINK-5428,PAYLOAD,2024-04-12 15:32:57,15.08838818,0.0001111,53.2168,278.5463,100.5573,259.5545,8.3206e-05,1.037e-05,0.0,0 STARLINK-5428,1 54800U 22175AU  24103.64788668  .00001037  00000-0  83206-4 0  9991,2 54800  53.2168 278.5463 0001111 100.5573 259.5545 15.08838818 72828,6917.884,95.438,540.518,538.98,0.0
54800.0,STARLINK-5428,PAYLOAD,2024-04-13 12:12:58,15.08841581,0.0001296,53.2179,274.6811,95.0865,265.0275,0.00010428,1.372e-05,0.0,0 STARLINK-5428,1 54800U 22175AU  24104.50900694  .00001372  00000-0  10428-3 0  9999,2 54800  53.2179 274.6811 0001296  95.0865 265.0275 15.08841581 75118,6917.876,95.437,540.637,538.844,0.0
54800.0,STARLINK-5428,PAYLOAD,2024-04-13 18:34:30,15.08843759,0.0001248,53.2178,273.4905,90.1857,269.9278,0.00010928,1.452e-05,0.0,0 STARLINK-5428,1 54800U 22175AU  24104.77396537  .00001452  00000-0  10928-3 0  9997,2 54800  53.2178 273.4905 0001248  90.1857 269.9278 15.08843759 75151,6917.869,95.437,540.597,538.871,0.0
54800.0,STARLINK-5428,PAYLOAD,2024-04-14 18:25:18,15.08843205,0.0001577,53.2189,269.0293,65.9119,294.2038,9.2145e-05,1.179e-05,0.0,0 STARLINK-5428,1 54800U 22175AU  24105.76757024  .00001179  00000-0  92145-4 0  9997,2 54800  53.2189 269.0293 0001577  65.9119 294.2038 15.08843205 73148,6917.871,95.437,540.827,538.645,0.0
54800.0,STARLINK-5428,PAYLOAD,2024-04-15 19:51:28,15.08839592,0.0001828,53.2193,264.2706,61.7182,298.3995,0.00016414,2.325e-05,0.0,0 STARLINK-5428,1 54800U 22175AU  24106.82741320  .00002325  00000-0  16414-3 0  9995,2 54800  53.2193 264.2706 0001828  61.7182 298.3995 15.08839592 73301,6917.882,95.438,541.011,538.482,0.0
54800.0,STARLINK-5428,PAYLOAD,2024-04-16 10:09:56,15.0884312,0.0001409,53.2165,261.5901,87.3442,272.7711,3.9901e-05,3.47e-06,0.0,0 STARLINK-5428,1 54800U 22175AU  24107.42357108  .00000347  00000-0  39901-4 0  9998,2 54800  53.2165 261.5901 0001409  87.3442 272.7711 15.08843120 75558,6917.871,95.437,540.711,538.761,0.0
54800.0,STARLINK-5428,PAYLOAD,2024-04-16 16:31:28,15.08854094,0.0001432,53.2151,260.405,75.5158,284.5993,0.00022444,3.287e-05,0.0,0 STARLINK-5428,1 54800U 22175AU  24107.68852494  .00003287  00000-0  22444-3 0  9993,2 54800  53.2151 260.4050 0001432  75.5158 284.5993 15.08854094 73435,6917.837,95.437,540.693,538.712,0.0
54800.0,STARLINK-5428,PAYLOAD,2024-04-17 13:11:29,15.08844884,0.0001299,53.2152,256.5348,97.6291,262.4848,0.00013494,1.861e-05,0.0,0 STARLINK-5428,1 54800U 22175AU  24108.54964749  .00001861  00000-0  13494-3 0  9997,2 54800  53.2152 256.5348 0001299  97.6291 262.4848 15.08844884 73560,6917.865,95.437,540.629,538.832,0.0
54800.0,STARLINK-5428,PAYLOAD,2024-04-17 14:46:52,15.0884664,0.0001366,53.2162,256.2378,92.2835,267.8314,0.00015659,2.206e-05,0.0,0 STARLINK-5428,1 54800U 22175AU  24108.61588681  .00002206  00000-0  15659-3 0  9991,2 54800  53.2162 256.2378 0001366  92.2835 267.8314 15.08846640 75731,6917.86,95.437,540.67,538.78,0.0
54800.0,STARLINK-5428,PAYLOAD,2024-04-17 16:22:15,15.08845789,0.0001519,53.2157,255.9453,73.4264,286.6895,0.00017878,2.559e-05,0.0,0 STARLINK-5428,1 54800U 22175AU  24108.68212835  .00002559  00000-0  17878-3 0  9999,2 54800  53.2157 255.9453 0001519  73.4264 286.6895 15.08845789 75749,6917.863,95.437,540.779,538.677,0.0
54800.0,STARLINK-5428,PAYLOAD,2024-04-19 12:53:04,15.08840388,0.0001362,53.2172,247.6169,90.6211,269.4938,0.00012749,1.742e-05,0.0,0 STARLINK-5428,1 54800U 22175AU  24110.53685507  .00001742  00000-0  12749-3 0  9991,2 54800  53.2172 247.6169 0001362  90.6211 269.4938 15.08840388 73865,6917.879,95.438,540.686,538.802,0.0
54800.0,STARLINK-5428,PAYLOAD,2024-04-19 14:28:27,15.08843236,0.0001502,53.2167,247.319,94.2998,265.8166,0.00017349,2.474e-05,0.0,0 STARLINK-5428,1 54800U 22175AU  24110.60309267  .00002474  00000-0  17349-3 0  9999,2 54800  53.2167 247.3190 0001502  94.2998 265.8166 15.08843236 76038,6917.87,95.437,540.775,538.696,0.0
54800.0,STARLINK-5428,PAYLOAD,2024-04-19 16:03:50,15.08849935,0.0001573,53.217,247.0192,107.3994,252.717,0.00036496,5.527e-05,0.0,0 STARLINK-5428,1 54800U 22175AU  24110.66933051  .00005527  00000-0  36496-3 0  9995,2 54800  53.2170 247.0192 0001573 107.3994 252.7170 15.08849935 73883,6917.85,95.437,540.803,538.627,0.0
54800.0,STARLINK-5428,PAYLOAD,2024-04-20 12:43:51,15.08806029,0.0001091,53.2178,243.1616,54.9752,305.1342,-0.00069202,-0.00011274,0.0,0 STARLINK-5428,1 54800U 22175AU  24111.53045992 -.00011274  00000-0 -69202-3 0  9999,2 54800  53.2178 243.1616 0001091  54.9752 305.1342 15.08806029 74010,6917.984,95.44,540.604,539.094,0.0
54800.0,STARLINK-5428,PAYLOAD,2024-04-20 14:19:14,15.08806587,0.0001057,53.2174,242.8626,92.863,267.2483,-0.00068967,-0.00011237,0.0,0 STARLINK-5428,1 54800U 22175AU  24111.59669926 -.00011237  00000-0 -68967-3 0  9990,2 54800  53.2174 242.8626 0001057  92.8630 267.2483 15.08806587 76184,6917.983,95.44,540.579,539.116,0.0
54800.0,STARLINK-5428,PAYLOAD,2024-04-20 15:54:38,15.08804734,0.0001095,53.2175,242.5671,90.7508,269.3609,-0.00070733,-0.00011516,0.0,0 STARLINK-5428,1 54800U 22175AU  24111.66294142 -.00011516  00000-0 -70733-3 0  9996,2 54800  53.2175 242.5671 0001095  90.7508 269.3609 15.08804734 76191,6917.988,95.44,540.611,539.096,0.0
54800.0,STARLINK-5428,PAYLOAD,2024-04-21 14:10:01,15.08854457,0.0001643,53.2174,238.3973,118.8265,241.2892,0.00041806,6.374e-05,0.0,0 STARLINK-5428,1 54800U 22175AU  24112.59029668  .00006374  00000-0  41806-3 0  9991,2 54800  53.2174 238.3973 0001643 118.8265 241.2892 15.08854457 76335,6917.836,95.437,540.838,538.565,0.0
54800.0,STARLINK-5428,PAYLOAD,2024-04-21 18:56:10,15.08862673,0.0001351,53.2173,237.5045,89.3485,270.7662,0.00085372,0.00013333,0.0,0 STARLINK-5428,1 54800U 22175AU  24112.78901602  .00013333  00000-0  85372-3 0  9998,2 54800  53.2173 237.5045 0001351  89.3485 270.7662 15.08862673 74202,6917.811,95.436,540.611,538.741,0.0
54800.0,STARLINK-5428,PAYLOAD,2024-04-22 17:11:34,15.08856425,0.0001337,53.2177,233.3359,104.4765,255.6376,0.0005167,7.949e-05,0.0,0 STARLINK-5428,1 54800U 22175AU  24113.71637605  .00007949  00000-0  51670-3 0  9991,2 54800  53.2177 233.3359 0001337 104.4765 255.6376 15.08856425 74349,6917.83,95.437,540.62,538.77,0.0
54800.0,STARLINK-5428,PAYLOAD,2024-04-23 12:16:12,15.08843702,0.0001948,53.2174,229.7729,128.6115,231.5052,0.0003509,5.301e-05,0.0,0 STARLINK-5428,1 54800U 22175AU  24114.51125756  .00005301  00000-0  35090-3 0  9997,2 54800  53.2174 229.7729 0001948 128.6115 231.5052 15.08843702 74462,6917.869,95.437,541.082,538.386,0.0
54800.0,STARLINK-5428,PAYLOAD,2024-04-23 13:51:36,15.08842436,0.0001703,53.2176,229.4791,87.4427,272.676,0.00042785,6.528e-05,0.0,0 STARLINK-5428,1 54800U 22175AU  24114.57750254  .00006528  00000-0  42785-3 0  9991,2 54800  53.2176 229.4791 0001703  87.4427 272.6760 15.08842436 76633,6917.873,95.437,540.916,538.56,0.0
54800.0,STARLINK-5428,PAYLOAD,2024-04-23 15:26:59,15.08842999,0.0001728,53.2163,229.18,74.3609,285.7573,0.0013323,0.00020981,0.0,0 STARLINK-5428,1 54800U 22175AU  24114.64374474  .00020981  00000-0  13323-2 0  9999,2 54800  53.2163 229.1800 0001728  74.3609 285.7573 15.08842999 76643,6917.871,95.437,540.932,538.541,0.0
54800.0,STARLINK-5428,PAYLOAD,2024-04-24 13:42:23,15.08863266,0.0001368,53.2164,225.0178,100.0568,260.0578,0.0016121,0.00025478,0.0,0 STARLINK-5428,1 54800U 22175AU  24115.57109998  .00025478  00000-0  16121-2 0  9994,2 54800  53.2164 225.0178 0001368 100.0568 260.0578 15.08863266 76784,6917.809,95.436,540.621,538.728,0.0
54800.0,STARLINK-5428,PAYLOAD,2024-04-25 13:33:10,15.08840294,0.0001486,53.2163,220.5562,115.0289,245.0858,0.00076912,0.00011974,0.0,0 STARLINK-5428,1 54800U 22175AU  24116.56470631  .00011974  00000-0  76912-3 0  9990,2 54800  53.2163 220.5562 0001486 115.0289 245.0858 15.08840294 74774,6917.879,95.438,540.772,538.716,0.0
54800.0,STARLINK-5428,PAYLOAD,2024-04-26 13:23:57,15.08864547,0.0001456,53.2166,216.1017,92.0072,268.1087,0.001106,0.0001737,0.0,0 STARLINK-5428,1 54800U 22175AU  24117.55830104  .00017370  00000-0  11060-2 0  9993,2 54800  53.2166 216.1017 0001456  92.0072 268.1087 15.08864547 77088,6917.805,95.436,540.678,538.663,0.0
54800.0,STARLINK-5428,PAYLOAD,2024-04-26 22:56:15,15.08867367,0.0001434,53.217,214.3159,89.4259,270.6898,0.00073498,0.00011437,0.0,0 STARLINK-5428,1 54800U 22175AU  24117.95573676  .00011437  00000-0  73498-3 0  9997,2 54800  53.2170 214.3159 0001434  89.4259 270.6898 15.08867367 74980,6917.797,95.436,540.654,538.67,0.0
